BEIJING 1               
1 28890U 05043A   17252.57088485  .00000030  00000-0  15134-4 0  9992
2 28890  97.8882  44.6170 0013874 243.4253 116.5529 14.61188475632756
HJ-1A                   
1 33320U 08041A   17252.80524381  .00000706  00000-0  10725-3 0  9993
2 33320  97.9273 316.1090 0027750 111.6216 248.7938 14.76821953485272
HJ-1B                   
1 33321U 08041B   17252.73920351  .00000449  00000-0  70535-4 0  9993
2 33321  97.9330 317.3177 0036098 127.6343 232.8145 14.76899809485256
YAOGAN 4                
1 33446U 08061A   17252.81330721  .00000425  00000-0  67351-4 0  9994
2 33446  97.5992 244.8722 0016691  30.9828 329.2364 14.76688953472510
DEIMOS-1                
1 35681U 09041A   17252.85067113  .00000578  00000-0  10058-3 0  9992
2 35681  97.9404 143.1622 0002886  68.2855 291.8671 14.71679964435599
UK-DMC 2                
1 35683U 09041C   17252.59938951  .00000228  00000-0  44818-4 0  9996
2 35683  97.8243 128.0959 0001892  77.6468 282.4965 14.70979455435427
RISAT 1                 
1 38248U 12017A   17252.89560791  .00002666  00000-0  17164-3 0  9990
2 38248  97.5741 259.4919 0006370 107.2913 340.4781 15.09204160296011
DMC3-FM1                
1 40715U 15032A   17252.56987459  .00000310  00000-0  55204-4 0  9992
2 40715  98.0278 147.2854 0015027 224.1032 135.8975 14.73683802116629
DMC3-FM2                
1 40716U 15032B   17252.86443151  .00000287  00000-0  51653-4 0  9999
2 40716  98.0302 147.6707 0012118 231.8622 128.1520 14.73694420116671
DMC3-FM3                
1 40717U 15032C   17252.54744069  .00000980  00000-0  15781-3 0  9998
2 40717  98.0286 148.1006 0015804 225.8992 134.0938 14.73682233116622
